OBJECT_NAME,OBJECT_ID,EPOCH,MEAN_MOTION,ECCENTRICITY,INCLINATION,RA_OF_ASC_NODE,ARG_OF_PERICENTER,MEAN_ANOMALY,EPHEMERIS_TYPE,CLASSIFICATION_TYPE,NORAD_CAT_ID,ELEMENT_SET_NO,REV_AT_EPOCH,BSTAR,MEAN_MOTION_DOT,MEAN_MOTION_DDOT
GSAT-15,2015-065A,2026-06-17T15:27:13.912992,1.00272214,.0004225,0.0687,265.0590,164.0387,162.1043,0,U,41028,999,3880,0,-.263E-5,0
BADR-7 (ARABSAT-6B),2015-065B,2026-06-17T11:22:44.705856,1.00274878,.0004027,0.0488,237.5174,320.7911,264.1312,0,U,41029,999,3877,0,.14E-5,0
LAOSAT 1,2015-067A,2026-06-17T20:25:21.565920,1.00269130,.0002158,0.0444,153.5212,243.7985,303.6200,0,U,41034,999,3886,0,-.348E-5,0
TELSTAR 12V,2015-068A,2026-06-17T19:44:27.805920,1.00271022,.0002171,0.0177,10.2493,68.4377,108.5030,0,U,41036,999,3863,0,-.124E-5,0
ELEKTRO-L 2,2015-074A,2026-06-16T15:18:31.243968,1.00270425,.0000972,6.6931,70.5258,242.2635,167.2330,0,U,41105,999,3850,0,-.124E-5,0
COSMOS 2513,2015-075A,2026-06-16T20:14:23.822592,1.00273214,.00031485,0.0795,101.3339,329.4888,218.1283,0,U,41121,999,3854,0,-.141E-5,0
EXPRESS-AMU1,2015-082A,2026-06-17T19:59:03.906240,1.00273652,.0002768,0.0165,319.3519,134.9794,147.6316,0,U,41191,999,3827,0,.15E-5,0
GAOFEN-4,2015-083A,2026-06-17T20:18:52.188768,1.00268338,.0004384,0.3594,83.7370,115.4365,117.3189,0,U,41194,999,3853,0,-.34E-5,0
BELINTERSAT-1,2016-001A,2026-06-17T20:03:25.985952,1.00273042,.0002384,0.0342,254.1615,151.5307,212.7139,0,U,41238,999,3824,0,.101E-5,0
IRNSS-1E,2016-003A,2026-06-17T17:44:02.905728,1.00277822,.0019522,33.2353,59.7421,175.9761,48.0133,0,U,41241,999,3808,0,-.32E-5,0
EUTELSAT 9B,2016-005A,2026-06-17T19:51:19.647072,1.00271709,.0001655,0.0827,75.7497,331.2182,165.9074,0,U,41310,999,3812,0,.56E-6,0
SES-9,2016-013A,2026-06-17T17:17:38.582016,1.00271624,.0002173,0.0098,351.3074,92.0047,190.3664,0,U,41380,999,3744,0,-.35E-5,0
EUTELSAT 65 WEST A,2016-014A,2026-06-17T19:30:09.300096,1.00268112,.0001973,0.0534,331.7495,105.6080,56.0183,0,U,41382,999,3753,0,-.281E-5,0
IRNSS-1F,2016-015A,2026-06-17T19:57:56.514240,1.00267700,.0017441,5.3506,96.7662,185.1454,316.1104,0,U,41384,999,3767,0,.15E-5,0
BEIDOU-2 IGSO-6,2016-021A,2026-06-16T02:58:21.700128,1.00259474,.00571844,60.2243,38.0497,231.4868,132.3999,0,U,41434,999,3747,0,-.15E-5,0
IRNSS-1G,2016-027A,2026-06-17T18:42:58.823136,1.00265798,.0007548,5.1994,97.4595,355.2759,223.5127,0,U,41469,999,3718,0,-.343E-5,0
JCSAT-2B,2016-028A,2026-06-17T15:24:42.116832,1.00272181,.0000806,0.0179,0.9298,96.7115,193.4248,0,U,41471,999,3713,0,-.17E-5,0
THAICOM 8,2016-031A,2026-06-17T20:11:07.931328,1.00269183,.000353,0.0557,32.5288,27.5634,227.2618,0,U,41552,999,3672,0,-.126E-5,0
INTELSAT 31 (IS-31),2016-035A,2026-06-17T19:21:40.112064,1.00269666,.0001074,0.0150,286.9392,329.0178,205.4561,0,U,41581,999,3669,0,-.156E-5,0
BEIDOU-2 G7,2016-037A,2026-06-17T20:20:14.558208,1.00276213,.0006418,1.7218,69.3114,358.0594,254.2501,0,U,41586,999,689,0,-.359E-5,0
ABS-2A (MONGOLSAT-1),2016-038A,2026-06-17T20:17:30.336000,1.00268582,.0001238,0.0195,19.2714,4.9344,261.0002,0,U,41588,999,3671,0,-.89E-6,0
EUTELSAT 117 WEST B,2016-038B,2026-06-17T11:15:38.600064,1.00273040,.0000477,0.0105,150.8042,293.5309,233.3050,0,U,41589,999,3666,0,-.16E-6,0
BRISAT,2016-039A,2026-06-17T15:18:38.568960,1.00269921,.0001923,0.0226,336.0336,106.1872,203.8218,0,U,41591,999,3661,0,0,0
ECHOSTAR 18,2016-039B,2026-06-17T11:40:38.561088,1.00271232,.0001192,0.0179,6.4112,78.3603,294.7538,0,U,41592,999,3662,0,-.287E-5,0
MUOS-5,2016-041A,2026-06-17T15:53:09.391200,1.00272909,.0197502,2.2019,301.6820,260.8129,196.4829,0,U,41622,999,3709,0,-.142E-5,0
TIANTONG-1 1,2016-048A,2026-06-17T17:01:01.746336,1.00274349,.0005483,3.8509,43.4273,43.2125,175.9694,0,U,41725,999,3627,0,-.324E-5,0
JCSAT-16,2016-050A,2026-06-16T13:41:52.170144,1.00270195,.0000902,0.0173,3.0523,120.0129,131.1787,0,U,41729,999,3606,0,-.253E-5,0
USA 270,2016-052A,2026-06-16T14:14:22.517952,0.99499640,.000073,4.1965,77.2060,182.0156,35.6177,0,U,41744,999,2812,0,-.127E-5,0
USA 271,2016-052B,2026-06-16T18:42:08.176320,0.99837813,.0002276,4.1686,77.2569,292.3319,292.8146,0,U,41745,999,2791,0,-.332E-5,0
INTELSAT 36 (IS-36),2016-053A,2026-06-17T20:08:15.705024,1.00271067,.000215,0.0131,13.8911,319.5503,303.2041,0,U,41747,999,3596,0,-.3E-6,0
INSAT-3DR,2016-054A,2026-06-17T20:09:53.051040,1.00270968,.0010565,0.1083,86.2823,187.5513,8.6946,0,U,41752,999,3582,0,-.82E-6,0
GSAT-18,2016-060A,2026-06-17T20:09:53.051040,1.00270993,.0005483,0.0619,96.6904,336.6003,209.2434,0,U,41793,999,3553,0,-.82E-6,0
