GSAT-15                 
1 41028U 15065A   26168.64391103 -.00000263  00000+0  00000+0 0  9992
2 41028   0.0687 265.0590 0004225 164.0387 162.1043  1.00272214 38802
BADR-7 (ARABSAT-6B)     
1 41029U 15065B   26168.47412854  .00000140  00000+0  00000+0 0  9994
2 41029   0.0488 237.5174 0004027 320.7911 264.1312  1.00274878 38774
LAOSAT 1                
1 41034U 15067A   26168.85094405 -.00000348  00000+0  00000+0 0  9993
2 41034   0.0444 153.5212 0002158 243.7985 303.6200  1.00269130 38860
TELSTAR 12V             
1 41036U 15068A   26168.82254405 -.00000124  00000+0  00000+0 0  9993
2 41036   0.0177  10.2493 0002171  68.4377 108.5030  1.00271022 38638
ELEKTRO-L 2             
1 41105U 15074A   26167.63786162 -.00000124  00000+0  00000+0 0  9995
2 41105   6.6931  70.5258 0000972 242.2635 167.2330  1.00270425 38506
COSMOS 2513             
1 41121U 15075A   26167.84333128 -.00000141  00000+0  00000+0 0  9996
2 41121   0.0795 101.3339 0003148 329.4888 218.1283  1.00273214 38545
EXPRESS-AMU1            
1 41191U 15082A   26168.83268410  .00000150  00000+0  00000+0 0  9991
2 41191   0.0165 319.3519 0002768 134.9794 147.6316  1.00273652 38275
GAOFEN-4                
1 41194U 15083A   26168.84643737 -.00000340  00000+0  00000+0 0  9997
2 41194   0.3594  83.7370 0004384 115.4365 117.3189  1.00268338 38534
BELINTERSAT-1           
1 41238U 16001A   26168.83571743  .00000101  00000+0  00000+0 0  9997
2 41238   0.0342 254.1615 0002384 151.5307 212.7139  1.00273042 38243
IRNSS-1E                
1 41241U 16003A   26168.73892252 -.00000320  00000+0  00000+0 0  9997
2 41241  33.2353  59.7421 0019522 175.9761  48.0133  1.00277822 38083
EUTELSAT 9B             
1 41310U 16005A   26168.82731073  .00000056  00000+0  00000+0 0  9994
2 41310   0.0827  75.7497 0001655 331.2182 165.9074  1.00271709 38127
SES-9                   
1 41380U 16013A   26168.72058544 -.00000350  00000+0  00000+0 0  9992
2 41380   0.0098 351.3074 0002173  92.0047 190.3664  1.00271624 37443
EUTELSAT 65 WEST A      
1 41382U 16014A   26168.81260764 -.00000281  00000+0  00000+0 0  9997
2 41382   0.0534 331.7495 0001973 105.6080  56.0183  1.00268112 37536
IRNSS-1F                
1 41384U 16015A   26168.83190410  .00000150  00000+0  00000+0 0  9996
2 41384   5.3506  96.7662 0017441 185.1454 316.1104  1.00267700 37674
BEIDOU-2 IGSO-6         
1 41434U 16021A   26167.12386227 -.00000150  00000+0  00000+0 0  9994
2 41434  60.2243  38.0497 0057184 231.4868 132.3999  1.00259474 37472
IRNSS-1G                
1 41469U 16027A   26168.77984749 -.00000343  00000+0  00000+0 0  9997
2 41469   5.1994  97.4595 0007548 355.2759 223.5127  1.00265798 37182
JCSAT-2B                
1 41471U 16028A   26168.64215413 -.00000170  00000+0  00000+0 0  9990
2 41471   0.0179   0.9298 0000806  96.7115 193.4248  1.00272181 37134
THAICOM 8               
1 41552U 16031A   26168.84106402 -.00000126  00000+0  00000+0 0  9994
2 41552   0.0557  32.5288 0003530  27.5634 227.2618  1.00269183 36728
INTELSAT 31 (IS-31)     
1 41581U 16035A   26168.80671426 -.00000156  00000+0  00000+0 0  9992
2 41581   0.0150 286.9392 0001074 329.0178 205.4561  1.00269666 36691
BEIDOU-2 G7             
1 41586U 16037A   26168.84739072 -.00000359  00000+0  00000+0 0  9990
2 41586   1.7218  69.3114 0006418 358.0594 254.2501  1.00276213  6896
ABS-2A (MONGOLSAT-1)    
1 41588U 16038A   26168.84549000 -.00000089  00000+0  00000+0 0  9993
2 41588   0.0195  19.2714 0001238   4.9344 261.0002  1.00268582 36715
EUTELSAT 117 WEST B     
1 41589U 16038B   26168.46919676 -.00000016  00000+0  00000+0 0  9992
2 41589   0.0105 150.8042 0000477 293.5309 233.3050  1.00273040 36668
BRISAT                  
1 41591U 16039A   26168.63794640  .00000000  00000+0  00000+0 0  9999
2 41591   0.0226 336.0336 0001923 106.1872 203.8218  1.00269921 36616
ECHOSTAR 18             
1 41592U 16039B   26168.48655742 -.00000287  00000+0  00000+0 0  9990
2 41592   0.0179   6.4112 0001192  78.3603 294.7538  1.00271232 36627
MUOS-5                  
1 41622U 16041A   26168.66191425 -.00000142  00000+0  00000+0 0  9990
2 41622   2.2019 301.6820 0197502 260.8129 196.4829  1.00272909 37091
TIANTONG-1 1            
1 41725U 16048A   26168.70904799 -.00000324  00000+0  00000+0 0  9994
2 41725   3.8509  43.4273 0005483  43.2125 175.9694  1.00274349 36275
JCSAT-16                
1 41729U 16050A   26167.57074271 -.00000253  00000+0  00000+0 0  9999
2 41729   0.0173   3.0523 0000902 120.0129 131.1787  1.00270195 36063
USA 270                 
1 41744U 16052A   26167.59331618 -.00000127  00000+0  00000+0 0  9991
2 41744   4.1965  77.2060 0000730 182.0156  35.6177  0.99499640 28124
USA 271                 
1 41745U 16052B   26167.77926130 -.00000332  00000+0  00000+0 0  9999
2 41745   4.1686  77.2569 0002276 292.3319 292.8146  0.99837813 27919
INTELSAT 36 (IS-36)     
1 41747U 16053A   26168.83907066 -.00000030  00000+0  00000+0 0  9992
2 41747   0.0131  13.8911 0002150 319.5503 303.2041  1.00271067 35967
INSAT-3DR               
1 41752U 16054A   26168.84019735 -.00000082  00000+0  00000+0 0  9994
2 41752   0.1083  86.2823 0010565 187.5513   8.6946  1.00270968 35823
GSAT-18                 
1 41793U 16060A   26168.84019735 -.00000082  00000+0  00000+0 0  9996
2 41793   0.0619  96.6904 0005483 336.6003 209.2434  1.00270993 35538
